{
    "links": {
        "self": "http://www.neowsapp.com/rest/v1/neo/3660064?api_key=iIulBulltgU6a56xZRHN4H3l9WmuAYTsLGpBGhQ2"
    },
    "id": "3660064",
    "neo_reference_id": "3660064",
    "name": "(2014 BS43)",
    "designation": "2014 BS43",
    "nasa_jpl_url": "http://ssd.jpl.nasa.gov/sbdb.cgi?sstr=3660064",
    "absolute_magnitude_h": 21.3,
    "estimated_diameter": {
        "kilometers": {
            "estimated_diameter_min": 0.1460679643,
            "estimated_diameter_max": 0.3266178974
        },
        "meters": {
            "estimated_diameter_min": 146.0679642714,
            "estimated_diameter_max": 326.6178974458
        },
        "miles": {
            "estimated_diameter_min": 0.090762397,
            "estimated_diameter_max": 0.2029508896
        },
        "feet": {
            "estimated_diameter_min": 479.2256199,
            "estimated_diameter_max": 1071.581062656
        }
    },
    "is_potentially_hazardous_asteroid": false,
    "close_approach_data": [
        {
            "close_approach_date": "2014-02-06",
            "close_approach_date_full": "2014-Feb-06 05:17",
            "epoch_date_close_approach": 1391663820000,
            "relative_velocity": {
                "kilometers_per_second": "25.0916217756",
                "kilometers_per_hour": "90329.838392097",
                "miles_per_hour": "56127.4487498005"
            },
            "miss_distance": {
                "astronomical": "0.1823984599",
                "lunar": "70.9530009011",
                "kilometers": "27286421.092320413",
                "miles": "16954995.8531631794"
            },
            "orbiting_body": "Earth"
        },
        {
            "close_approach_date": "2014-05-14",
            "close_approach_date_full": "2014-May-14 06:39",
            "epoch_date_close_approach": 1400049540000,
            "relative_velocity": {
                "kilometers_per_second": "28.6438094909",
                "kilometers_per_hour": "103117.7141671068",
                "miles_per_hour": "64073.3374501114"
            },
            "miss_distance": {
                "astronomical": "0.0562121902",
                "lunar": "21.8665419878",
                "kilometers": "8409223.921954874",
                "miles": "5225249.4470663012"
            },
            "orbiting_body": "Venus"
        }
    ],
    "orbital_data": {
        "orbit_id": "12",
        "orbit_determination_date": "2017-04-06 08:42:41",
        "first_observation_date": "2014-01-28",
        "last_observation_date": "2014-02-14",
        "data_arc_in_days": 17,
        "observations_used": 65,
        "orbit_uncertainty": "8",
        "minimum_orbit_intersection": ".177168",
        "jupiter_tisserand_invariant": "4.450",
        "epoch_osculation": "2456689.5",
        "eccentricity": ".549589264267357",
        "semi_major_axis": "1.367454679134942",
        "inclination": "41.20275279026544",
        "ascending_node_longitude": "127.864932945701",
        "orbital_period": "584.0739532492972",
        "perihelion_distance": ".6159162681102145",
        "perihelion_argument": "115.3376220536471",
        "aphelion_distance": "2.11899309015967",
        "perihelion_time": "2456761.591487530453",
        "mean_anomaly": "315.5656687537893",
        "mean_motion": ".6163603050559987",
        "equinox": "J2000",
        "orbit_class": {
            "orbit_class_type": "APO",
            "orbit_class_description": "Near-Earth asteroid orbits which cross the Earth’s orbit similar to that of 1862 Apollo",
            "orbit_class_range": "a (semi-major axis) > 1.0 AU; q (perihelion) < 1.017 AU"
        }
    },
    "is_sentry_object": false
}